CCSDS_OMM_VERS = 2.0
CREATION_DATE  = 
ORIGINATOR     = 

OBJECT_NAME    = H-2A R/B
OBJECT_ID      = 2006-002B
CENTER_NAME    = EARTH
REF_FRAME      = TEME
TIME_SYSTEM    = UTC
MEAN_ELEMENT_THEORY = SGP/SGP4

EPOCH          = 2026-03-23T07:59:28.975200
MEAN_MOTION    = 15.16713318
ECCENTRICITY   = .0052251
INCLINATION    = 98.2446
RA_OF_ASC_NODE = 230.5349
ARG_OF_PERICENTER = 194.1406
MEAN_ANOMALY   = 165.8366

EPHEMERIS_TYPE = 0
CLASSIFICATION_TYPE = U
NORAD_CAT_ID   = 28932
ELEMENT_SET_NO = 999
REV_AT_EPOCH   = 9650
BSTAR          = .56425E-3
MEAN_MOTION_DOT = .1138E-3
MEAN_MOTION_DDOT = 0

CCSDS_OMM_VERS = 2.0
CREATION_DATE  = 
ORIGINATOR     = 

OBJECT_NAME    = RESURS-DK 1
OBJECT_ID      = 2006-021A
CENTER_NAME    = EARTH
REF_FRAME      = TEME
TIME_SYSTEM    = UTC
MEAN_ELEMENT_THEORY = SGP/SGP4

EPOCH          = 2026-03-23T08:31:06.140352
MEAN_MOTION    = 15.12833840
ECCENTRICITY   = .0000707
INCLINATION    = 69.9339
RA_OF_ASC_NODE = 201.6732
ARG_OF_PERICENTER = 95.9885
MEAN_ANOMALY   = 264.1361

EPHEMERIS_TYPE = 0
CLASSIFICATION_TYPE = U
NORAD_CAT_ID   = 29228
ELEMENT_SET_NO = 999
REV_AT_EPOCH   = 8959
BSTAR          = .17848E-3
MEAN_MOTION_DOT = .3037E-4
MEAN_MOTION_DDOT = 0

CCSDS_OMM_VERS = 2.0
CREATION_DATE  = 
ORIGINATOR     = 

OBJECT_NAME    = CZ-4B R/B
OBJECT_ID      = 2006-046C
CENTER_NAME    = EARTH
REF_FRAME      = TEME
TIME_SYSTEM    = UTC
MEAN_ELEMENT_THEORY = SGP/SGP4

EPOCH          = 2026-03-23T12:39:22.719456
MEAN_MOTION    = 15.17040392
ECCENTRICITY   = .0032258
INCLINATION    = 97.5564
RA_OF_ASC_NODE = 127.3985
ARG_OF_PERICENTER = 217.2953
MEAN_ANOMALY   = 142.6041

EPHEMERIS_TYPE = 0
CLASSIFICATION_TYPE = U
NORAD_CAT_ID   = 29507
ELEMENT_SET_NO = 999
REV_AT_EPOCH   = 6214
BSTAR          = .2697E-3
MEAN_MOTION_DOT = .5336E-4
MEAN_MOTION_DDOT = 0

CCSDS_OMM_VERS = 2.0
CREATION_DATE  = 
ORIGINATOR     = 

OBJECT_NAME    = CZ-2C R/B
OBJECT_ID      = 2007-010B
CENTER_NAME    = EARTH
REF_FRAME      = TEME
TIME_SYSTEM    = UTC
MEAN_ELEMENT_THEORY = SGP/SGP4

EPOCH          = 2026-03-23T12:49:09.467904
MEAN_MOTION    = 14.20250948
ECCENTRICITY   = .0057906
INCLINATION    = 98.3993
RA_OF_ASC_NODE = 195.1199
ARG_OF_PERICENTER = 253.5602
MEAN_ANOMALY   = 105.9206

EPHEMERIS_TYPE = 0
CLASSIFICATION_TYPE = U
NORAD_CAT_ID   = 31114
ELEMENT_SET_NO = 999
REV_AT_EPOCH   = 98168
BSTAR          = .79032E-4
MEAN_MOTION_DOT = .13E-5
MEAN_MOTION_DDOT = 0

CCSDS_OMM_VERS = 2.0
CREATION_DATE  = 
ORIGINATOR     = 

OBJECT_NAME    = COSMO-SKYMED 1
OBJECT_ID      = 2007-023A
CENTER_NAME    = EARTH
REF_FRAME      = TEME
TIME_SYSTEM    = UTC
MEAN_ELEMENT_THEORY = SGP/SGP4

EPOCH          = 2026-03-23T12:06:25.558272
MEAN_MOTION    = 14.96636711
ECCENTRICITY   = .0001128
INCLINATION    = 97.8880
RA_OF_ASC_NODE = 273.6491
ARG_OF_PERICENTER = 87.0809
MEAN_ANOMALY   = 273.0541

EPHEMERIS_TYPE = 0
CLASSIFICATION_TYPE = U
NORAD_CAT_ID   = 31598
ELEMENT_SET_NO = 999
REV_AT_EPOCH   = 1697
BSTAR          = .28841E-3
MEAN_MOTION_DOT = .3228E-4
MEAN_MOTION_DDOT = 0

CCSDS_OMM_VERS = 2.0
CREATION_DATE  = 
ORIGINATOR     = 

OBJECT_NAME    = COSMOS 2428
OBJECT_ID      = 2007-029A
CENTER_NAME    = EARTH
REF_FRAME      = TEME
TIME_SYSTEM    = UTC
MEAN_ELEMENT_THEORY = SGP/SGP4

EPOCH          = 2026-03-23T13:15:04.000032
MEAN_MOTION    = 14.12947923
ECCENTRICITY   = .0009618
INCLINATION    = 70.9441
RA_OF_ASC_NODE = 174.2491
ARG_OF_PERICENTER = 262.8755
MEAN_ANOMALY   = 97.1273

EPHEMERIS_TYPE = 0
CLASSIFICATION_TYPE = U
NORAD_CAT_ID   = 31792
ELEMENT_SET_NO = 999
REV_AT_EPOCH   = 96605
BSTAR          = .23399E-4
MEAN_MOTION_DOT = -.4E-7
MEAN_MOTION_DDOT = 0

CCSDS_OMM_VERS = 2.0
CREATION_DATE  = 
ORIGINATOR     = 

OBJECT_NAME    = SL-16 R/B
OBJECT_ID      = 2007-029B
CENTER_NAME    = EARTH
REF_FRAME      = TEME
TIME_SYSTEM    = UTC
MEAN_ELEMENT_THEORY = SGP/SGP4

EPOCH          = 2026-03-23T08:27:49.495680
MEAN_MOTION    = 14.14841436
ECCENTRICITY   = .0002478
INCLINATION    = 70.9756
RA_OF_ASC_NODE = 143.6657
ARG_OF_PERICENTER = 276.7773
MEAN_ANOMALY   = 156.3817

EPHEMERIS_TYPE = 0
CLASSIFICATION_TYPE = U
NORAD_CAT_ID   = 31793
ELEMENT_SET_NO = 999
REV_AT_EPOCH   = 96730
BSTAR          = .15678E-3
MEAN_MOTION_DOT = .255E-5
MEAN_MOTION_DDOT = 0

CCSDS_OMM_VERS = 2.0
CREATION_DATE  = 
ORIGINATOR     = 

OBJECT_NAME    = KORONAS-FOTON
OBJECT_ID      = 2009-003A
CENTER_NAME    = EARTH
REF_FRAME      = TEME
TIME_SYSTEM    = UTC
MEAN_ELEMENT_THEORY = SGP/SGP4

EPOCH          = 2026-03-23T12:12:02.633184
MEAN_MOTION    = 15.43673139
ECCENTRICITY   = .0011814
INCLINATION    = 82.4277
RA_OF_ASC_NODE = 261.5046
ARG_OF_PERICENTER = 104.7881
MEAN_ANOMALY   = 255.4676

EPHEMERIS_TYPE = 0
CLASSIFICATION_TYPE = U
NORAD_CAT_ID   = 33504
ELEMENT_SET_NO = 999
REV_AT_EPOCH   = 94787
BSTAR          = .32064E-3
MEAN_MOTION_DOT = .1453E-3
MEAN_MOTION_DDOT = 0

CCSDS_OMM_VERS = 2.0
CREATION_DATE  = 
ORIGINATOR     = 

OBJECT_NAME    = CZ-2C R/B
OBJECT_ID      = 2011-030B
CENTER_NAME    = EARTH
REF_FRAME      = TEME
TIME_SYSTEM    = UTC
MEAN_ELEMENT_THEORY = SGP/SGP4

EPOCH          = 2026-03-23T08:04:26.254272
MEAN_MOTION    = 14.81269701
ECCENTRICITY   = .0051337
INCLINATION    = 97.8569
RA_OF_ASC_NODE = 39.3288
ARG_OF_PERICENTER = 307.1121
MEAN_ANOMALY   = 175.1181

EPHEMERIS_TYPE = 0
CLASSIFICATION_TYPE = U
NORAD_CAT_ID   = 37731
ELEMENT_SET_NO = 999
REV_AT_EPOCH   = 79211
BSTAR          = .20222E-3
MEAN_MOTION_DOT = .1557E-4
MEAN_MOTION_DDOT = 0

CCSDS_OMM_VERS = 2.0
CREATION_DATE  = 
ORIGINATOR     = 

OBJECT_NAME    = H-2A R/B
OBJECT_ID      = 2012-025E
CENTER_NAME    = EARTH
REF_FRAME      = TEME
TIME_SYSTEM    = UTC
MEAN_ELEMENT_THEORY = SGP/SGP4

EPOCH          = 2026-03-22T20:16:48.889056
MEAN_MOTION    = 14.95255350
ECCENTRICITY   = .00429324
INCLINATION    = 98.4752
RA_OF_ASC_NODE = 49.9468
ARG_OF_PERICENTER = 269.7267
MEAN_ANOMALY   = 89.9031

EPHEMERIS_TYPE = 0
CLASSIFICATION_TYPE = U
NORAD_CAT_ID   = 38341
ELEMENT_SET_NO = 999
REV_AT_EPOCH   = 75018
BSTAR          = .34053586E-3
MEAN_MOTION_DOT = .3747E-4
MEAN_MOTION_DDOT = 0

CCSDS_OMM_VERS = 2.0
CREATION_DATE  = 
ORIGINATOR     = 

OBJECT_NAME    = SHIJIAN-16 (SJ-16)
OBJECT_ID      = 2013-057A
CENTER_NAME    = EARTH
REF_FRAME      = TEME
TIME_SYSTEM    = UTC
MEAN_ELEMENT_THEORY = SGP/SGP4

EPOCH          = 2026-03-23T12:08:21.759360
MEAN_MOTION    = 14.92405481
ECCENTRICITY   = .0015185
INCLINATION    = 74.9728
RA_OF_ASC_NODE = 158.9343
ARG_OF_PERICENTER = 76.7359
MEAN_ANOMALY   = 283.5522

EPHEMERIS_TYPE = 0
CLASSIFICATION_TYPE = U
NORAD_CAT_ID   = 39358
ELEMENT_SET_NO = 999
REV_AT_EPOCH   = 67356
BSTAR          = .35956E-3
MEAN_MOTION_DOT = .3663E-4
MEAN_MOTION_DDOT = 0

CCSDS_OMM_VERS = 2.0
CREATION_DATE  = 
ORIGINATOR     = 

OBJECT_NAME    = SL-4 R/B
OBJECT_ID      = 2014-021B
CENTER_NAME    = EARTH
REF_FRAME      = TEME
TIME_SYSTEM    = UTC
MEAN_ELEMENT_THEORY = SGP/SGP4

EPOCH          = 2026-03-23T12:30:28.294848
MEAN_MOTION    = 15.39631914
ECCENTRICITY   = .0096281
INCLINATION    = 51.6055
RA_OF_ASC_NODE = 269.7772
ARG_OF_PERICENTER = 153.3896
MEAN_ANOMALY   = 207.2077

EPHEMERIS_TYPE = 0
CLASSIFICATION_TYPE = U
NORAD_CAT_ID   = 39679
ELEMENT_SET_NO = 999
REV_AT_EPOCH   = 65840
BSTAR          = .36974E-3
MEAN_MOTION_DOT = .17018E-3
MEAN_MOTION_DDOT = 0

