H-2A R/B                
1 28932U 06002B   26082.33297425  .00011380  00000+0  56425-3 0  9992
2 28932  98.2446 230.5349 0052251 194.1406 165.8366 15.16713318 96506
RESURS-DK 1             
1 29228U 06021A   26082.35493218  .00003037  00000+0  17848-3 0  9998
2 29228  69.9339 201.6732 0000707  95.9885 264.1361 15.12833840 89592
CZ-4B R/B               
1 29507U 06046C   26082.52734629  .00005336  00000+0  26970-3 0  9998
2 29507  97.5564 127.3985 0032258 217.2953 142.6041 15.17040392 62148
CZ-2C R/B               
1 31114U 07010B   26082.53413736  .00000130  00000+0  79032-4 0  9996
2 31114  98.3993 195.1199 0057906 253.5602 105.9206 14.20250948981688
COSMO-SKYMED 1          
1 31598U 07023A   26082.50446248  .00003228  00000+0  28841-3 0  9999
2 31598  97.8880 273.6491 0001128  87.0809 273.0541 14.96636711 16973
COSMOS 2428             
1 31792U 07029A   26082.55212963 -.00000004  00000+0  23399-4 0  9995
2 31792  70.9441 174.2491 0009618 262.8755  97.1273 14.12947923966053
SL-16 R/B               
1 31793U 07029B   26082.35265620  .00000255  00000+0  15678-3 0  9999
2 31793  70.9756 143.6657 0002478 276.7773 156.3817 14.14841436967303
KORONAS-FOTON           
1 33504U 09003A   26082.50836381  .00014530  00000+0  32064-3 0  9999
2 33504  82.4277 261.5046 0011814 104.7881 255.4676 15.43673139947877
CZ-2C R/B               
1 37731U 11030B   26082.33641498  .00001557  00000+0  20222-3 0  9990
2 37731  97.8569  39.3288 0051337 307.1121 175.1181 14.81269701792117
H-2A R/B                
1 38341U 12025E   26081.84501029  .00003747  00000+0  34054-3 0  9994
2 38341  98.4752  49.9468 0042932 269.7267  89.9031 14.95255350750185
SHIJIAN-16 (SJ-16)      
1 39358U 13057A   26082.50580740  .00003663  00000+0  35956-3 0  9999
2 39358  74.9728 158.9343 0015185  76.7359 283.5522 14.92405481673569
SL-4 R/B                
1 39679U 14021B   26082.52116082  .00017018  00000+0  36974-3 0  9993
2 39679  51.6055 269.7772 0096281 153.3896 207.2077 15.39631914658409
